{
    "links": {
        "self": "http://www.neowsapp.com/rest/v1/neo/3824061?api_key=iIulBulltgU6a56xZRHN4H3l9WmuAYTsLGpBGhQ2"
    },
    "id": "3824061",
    "neo_reference_id": "3824061",
    "name": "(2018 JJ1)",
    "designation": "2018 JJ1",
    "nasa_jpl_url": "http://ssd.jpl.nasa.gov/sbdb.cgi?sstr=3824061",
    "absolute_magnitude_h": 23.3,
    "estimated_diameter": {
        "kilometers": {
            "estimated_diameter_min": 0.058150704,
            "estimated_diameter_max": 0.130028927
        },
        "meters": {
            "estimated_diameter_min": 58.1507039646,
            "estimated_diameter_max": 130.0289270043
        },
        "miles": {
            "estimated_diameter_min": 0.0361331611,
            "estimated_diameter_max": 0.0807962044
        },
        "feet": {
            "estimated_diameter_min": 190.7831555951,
            "estimated_diameter_max": 426.6041048727
        }
    },
    "is_potentially_hazardous_asteroid": false,
    "close_approach_data": [
        {
            "close_approach_date": "2018-05-27",
            "close_approach_date_full": "2018-May-27 09:48",
            "epoch_date_close_approach": 1527414480000,
            "relative_velocity": {
                "kilometers_per_second": "11.9195042524",
                "kilometers_per_hour": "42910.2153086681",
                "miles_per_hour": "26662.739062211"
            },
            "miss_distance": {
                "astronomical": "0.1042443958",
                "lunar": "40.5510699662",
                "kilometers": "15594739.571116946",
                "miles": "9690121.8325720148"
            },
            "orbiting_body": "Earth"
        }
    ],
    "orbital_data": {
        "orbit_id": "3",
        "orbit_determination_date": "2018-05-16 06:24:16",
        "first_observation_date": "2018-05-08",
        "last_observation_date": "2018-05-16",
        "data_arc_in_days": 8,
        "observations_used": 29,
        "orbit_uncertainty": "9",
        "minimum_orbit_intersection": ".0311887",
        "jupiter_tisserand_invariant": "4.038",
        "epoch_osculation": "2458248.5",
        "eccentricity": ".5251144035592822",
        "semi_major_axis": "1.690079727371641",
        "inclination": "8.528893555568812",
        "ascending_node_longitude": "65.39759814124542",
        "orbital_period": "802.5261921890011",
        "perihelion_distance": ".8025945193652477",
        "perihelion_argument": "233.4246908687547",
        "aphelion_distance": "2.577564935378035",
        "perihelion_time": "2458304.814855008934",
        "mean_anomaly": "334.7380858088658",
        "mean_motion": ".4485834898647361",
        "equinox": "J2000",
        "orbit_class": {
            "orbit_class_type": "APO",
            "orbit_class_description": "Near-Earth asteroid orbits which cross the Earth’s orbit similar to that of 1862 Apollo",
            "orbit_class_range": "a (semi-major axis) > 1.0 AU; q (perihelion) < 1.017 AU"
        }
    },
    "is_sentry_object": false
}